[{"OBJECT_NAME":"OBJECT N","OBJECT_ID":"2024-205N","EPOCH":"2026-03-09T22:36:13.267872","MEAN_MOTION":15.33862123,"ECCENTRICITY":0.00094432,"INCLINATION":97.4211,"RA_OF_ASC_NODE":148.9295,"ARG_OF_PERICENTER":39.7652,"MEAN_ANOMALY":320.4281,"EPHEMERIS_TYPE":0,"CLASSIFICATION_TYPE":"U","NORAD_CAT_ID":61906,"ELEMENT_SET_NO":999,"REV_AT_EPOCH":7364,"BSTAR":0.00078005624,"MEAN_MOTION_DOT":0.00025559,"MEAN_MOTION_DDOT":0},{"OBJECT_NAME":"STARLINK-34319","OBJECT_ID":"2025-120N","EPOCH":"2026-03-09T12:56:25.486368","MEAN_MOTION":15.30195371,"ECCENTRICITY":0.00012699,"INCLINATION":53.1585,"RA_OF_ASC_NODE":117.3485,"ARG_OF_PERICENTER":80.5476,"MEAN_ANOMALY":279.5668,"EPHEMERIS_TYPE":0,"CLASSIFICATION_TYPE":"U","NORAD_CAT_ID":64268,"ELEMENT_SET_NO":999,"REV_AT_EPOCH":4389,"BSTAR":0.0010320328,"MEAN_MOTION_DOT":0.00030327,"MEAN_MOTION_DDOT":0}]
